NORAD_CAT_ID,OBJECT_NAME,OBJECT_TYPE,EPOCH,MEAN_MOTION,ECCENTRICITY,INCLINATION,RA_OF_ASC_NODE,ARG_OF_PERICENTER,MEAN_ANOMALY,BSTAR,MEAN_MOTION_DOT,MEAN_MOTION_DDOT,TLE_LINE0,TLE_LINE1,TLE_LINE2,SEMIMAJOR_AXIS,PERIOD,APOGEE,PERIGEE,DECAYED
53551.0,STARLINK-4514,PAYLOAD,2023-02-23 19:53:20,15.08828669,0.0001667,53.2205,6.4801,83.1572,276.961,3.9212e-05,3.36e-06,0.0,0 STARLINK-4514,1 53551U 22101AA  23054.82870579  .00000336  00000-0  39212-4 0  9998,2 53551  53.2205   6.4801 0001667  83.1572 276.9610 15.08828669 28759,6917.915,95.438,540.933,538.627,0.0
53551.0,STARLINK-4514,PAYLOAD,2023-02-24 07:01:01,15.08839412,0.0001108,53.2195,4.3972,89.31,270.8019,5.7972e-05,6.35e-06,0.0,0 STARLINK-4514,1 53551U 22101AA  23055.29237856  .00000635  00000-0  57972-4 0  9990,2 53551  53.2195   4.3972 0001108  89.3100 270.8019 15.08839412 28820,6917.882,95.438,540.514,538.981,0.0
53551.0,STARLINK-4514,PAYLOAD,2023-02-25 05:16:26,15.08836504,0.0001098,53.2189,0.2325,80.5051,279.6065,-0.00022207,-3.82e-05,0.0,0 STARLINK-4514,1 53551U 22101AA  23056.21975593 -.00003820  00000-0 -22207-3 0  9993,2 53551  53.2189   0.2325 0001098  80.5051 279.6065 15.08836504 28968,6917.891,95.438,540.516,538.996,0.0
53551.0,STARLINK-4514,PAYLOAD,2023-02-25 21:10:17,15.0883385,9.1e-05,53.2177,357.2589,119.286,240.8224,1.6911e-06,-2.61e-06,0.0,0 STARLINK-4514,1 53551U 22101AA  23056.88215190 -.00000261  00000-0  16911-5 0  9998,2 53551  53.2177 357.2589 0000910 119.2860 240.8224 15.08833850 29725,6917.899,95.438,540.394,539.135,0.0
53551.0,STARLINK-4514,PAYLOAD,2023-02-26 01:56:26,15.08846368,7.55e-05,53.2194,356.3679,92.0034,268.1045,8.4497e-05,1.058e-05,0.0,0 STARLINK-4514,1 53551U 22101AA  23057.08086220  .00001058  00000-0  84497-4 0  9998,2 53551  53.2194 356.3679 0000755  92.0034 268.1045 15.08846368 29094,6917.861,95.437,540.248,539.204,0.0
53551.0,STARLINK-4514,PAYLOAD,2023-02-26 05:07:12,15.08849111,0.0001017,53.2189,355.7736,92.6815,267.4293,0.00011747,1.583e-05,0.0,0 STARLINK-4514,1 53551U 22101AA  23057.21333931  .00001583  00000-0  11747-3 0  9997,2 53551  53.2189 355.7736 0001017  92.6815 267.4293 15.08849111 29771,6917.853,95.437,540.421,539.014,0.0
53551.0,STARLINK-4514,PAYLOAD,2023-02-26 19:25:41,15.08836479,0.0001181,53.2195,353.0977,76.2402,283.8722,0.00013623,1.881e-05,0.0,0 STARLINK-4514,1 53551U 22101AA  23057.80950713  .00001881  00000-0  13623-3 0  9991,2 53551  53.2195 353.0977 0001181  76.2402 283.8722 15.08836479 29208,6917.891,95.438,540.573,538.939,0.0
53551.0,STARLINK-4514,PAYLOAD,2023-02-27 01:47:13,15.08844182,0.0001021,53.2184,351.9091,82.8427,277.2681,0.00013702,1.894e-05,0.0,0 STARLINK-4514,1 53551U 22101AA  23058.07446123  .00001894  00000-0  13702-3 0  9998,2 53551  53.2184 351.9091 0001021  82.8427 277.2681 15.08844182 29248,6917.868,95.437,540.439,539.026,0.0
53551.0,STARLINK-4514,PAYLOAD,2023-02-27 04:57:58,15.08855842,8.65e-05,53.2186,351.3125,88.5078,271.6013,0.00019719,2.853e-05,0.0,0 STARLINK-4514,1 53551U 22101AA  23058.20693057  .00002853  00000-0  19719-3 0  9993,2 53551  53.2186 351.3125 0000865  88.5078 271.6013 15.08855842 29266,6917.832,95.437,540.295,539.099,0.0
53551.0,STARLINK-4514,PAYLOAD,2023-02-27 19:16:29,15.08839609,0.0001136,53.2187,348.637,81.3718,278.7403,-0.00014381,-2.576e-05,0.0,0 STARLINK-4514,1 53551U 22101AA  23058.80311407 -.00002576  00000-0 -14381-3 0  9999,2 53551  53.2187 348.6370 0001136  81.3718 278.7403 15.08839609 29356,6917.882,95.438,540.532,538.961,0.0
53551.0,STARLINK-4514,PAYLOAD,2023-02-28 01:38:00,15.08851778,9.2e-05,53.2183,347.4471,91.858,268.2518,-3.4248e-05,-8.33e-06,0.0,0 STARLINK-4514,1 53551U 22101AA  23059.06806095 -.00000833  00000-0 -34248-4 0  9999,2 53551  53.2183 347.4471 0000920  91.8580 268.2518 15.08851778 29390,6917.844,95.437,540.346,539.073,0.0
53551.0,STARLINK-4514,PAYLOAD,2023-02-28 04:48:46,15.08855741,0.0001149,53.2185,346.8514,97.6262,262.486,4.5615e-06,-2.15e-06,0.0,0 STARLINK-4514,1 53551U 22101AA  23059.20053626 -.00000215  00000-0  45615-5 0  9993,2 53551  53.2185 346.8514 0001149  97.6262 262.4860 15.08855741 30075,6917.832,95.437,540.492,538.902,0.0
53551.0,STARLINK-4514,PAYLOAD,2023-02-28 22:18:04,15.08819204,0.0001405,53.2188,343.58,105.2372,254.8775,-0.00035094,-5.866e-05,0.0,0 STARLINK-4514,1 53551U 22101AA  23059.92921760 -.00005866  00000-0 -35094-3 0  9991,2 53551  53.2188 343.5800 0001405 105.2372 254.8775 15.08819204 30189,6917.944,95.439,540.781,538.837,0.0
53551.0,STARLINK-4514,PAYLOAD,2023-03-01 01:28:50,15.08817199,0.0001178,53.2189,342.9862,105.8732,254.239,-0.00035196,-5.881e-05,0.0,0 STARLINK-4514,1 53551U 22101AA  23060.06170038 -.00005881  00000-0 -35196-3 0  9992,2 53551  53.2189 342.9862 0001178 105.8732 254.2390 15.08817199 29540,6917.95,95.439,540.63,539.0,0.0
53551.0,STARLINK-4514,PAYLOAD,2023-03-01 22:08:49,15.08837418,9.62e-05,53.219,339.1225,92.1192,267.991,3.7035e-05,3.02e-06,0.0,0 STARLINK-4514,1 53551U 22101AA  23060.92279914  .00000302  00000-0  37035-4 0  9996,2 53551  53.2190 339.1225 0000962  92.1192 267.9910 15.08837418 30335,6917.888,95.438,540.419,539.088,0.0
53551.0,STARLINK-4514,PAYLOAD,2023-03-02 02:54:56,15.08867613,0.0001239,53.2191,338.2277,115.5332,244.5788,0.00020078,2.911e-05,0.0,0 STARLINK-4514,1 53551U 22101AA  23061.12149289  .00002911  00000-0  20078-3 0  9996,2 53551  53.2191 338.2277 0001239 115.5332 244.5788 15.08867613 29700,6917.796,95.436,540.518,538.804,0.0
53551.0,STARLINK-4514,PAYLOAD,2023-03-02 18:48:50,15.0882799,0.0001744,53.2183,335.2548,122.5272,237.5889,0.00023846,3.508e-05,0.0,0 STARLINK-4514,1 53551U 22101AA  23061.78391920  .00003508  00000-0  23846-3 0  9998,2 53551  53.2183 335.2548 0001744 122.5272 237.5889 15.08827990 29800,6917.917,95.438,540.989,538.576,0.0
53551.0,STARLINK-4514,PAYLOAD,2023-03-03 02:45:45,15.0883447,0.0001169,53.2185,333.7715,117.9422,242.1689,0.00025973,3.848e-05,0.0,0 STARLINK-4514,1 53551U 22101AA  23062.11511469  .00003848  00000-0  25973-3 0  9998,2 53551  53.2185 333.7715 0001169 117.9422 242.1689 15.08834470 29853,6917.897,95.438,540.571,538.954,0.0
53551.0,STARLINK-4514,PAYLOAD,2023-03-03 18:39:37,15.08861435,0.0001302,53.2191,330.7964,109.5633,250.5499,-0.00016964,-2.988e-05,0.0,0 STARLINK-4514,1 53551U 22101AA  23062.77751283 -.00002988  00000-0 -16964-3 0  9996,2 53551  53.2191 330.7964 0001302 109.5633 250.5499 15.08861435 29957,6917.815,95.436,540.581,538.779,0.0
53551.0,STARLINK-4514,PAYLOAD,2023-03-04 02:36:31,15.08874386,0.0001144,53.2186,329.3097,108.1151,251.9965,-4.1678e-05,-9.52e-06,0.0,0 STARLINK-4514,1 53551U 22101AA  23063.10869493 -.00000952  00000-0 -41678-4 0  9997,2 53551  53.2186 329.3097 0001144 108.1151 251.9965 15.08874386 30006,6917.775,95.435,540.432,538.849,0.0
53551.0,STARLINK-4514,PAYLOAD,2023-03-04 18:30:24,15.08843817,0.0001565,53.2183,326.3361,92.4844,267.6327,-5.0078e-05,-1.085e-05,0.0,0 STARLINK-4514,1 53551U 22101AA  23063.77111170 -.00001085  00000-0 -50078-4 0  9994,2 53551  53.2183 326.3361 0001565  92.4844 267.6327 15.08843817 30107,6917.869,95.437,540.816,538.651,0.0
53551.0,STARLINK-4514,PAYLOAD,2023-03-05 21:31:57,15.08842064,9.15e-05,53.2179,321.2813,66.2815,293.8274,-0.00014924,-2.662e-05,0.0,0 STARLINK-4514,1 53551U 22101AA  23064.89719638 -.00002662  00000-0 -14924-3 0  9992,2 53551  53.2179 321.2813 0000915  66.2815 293.8274 15.08842064 30276,6917.874,95.437,540.372,539.106,0.0
53551.0,STARLINK-4514,PAYLOAD,2023-03-05 23:07:20,15.08840002,9.81e-05,53.2179,320.9831,88.2942,271.8163,-0.00013898,-2.499e-05,0.0,0 STARLINK-4514,1 53551U 22101AA  23064.96343627 -.00002499  00000-0 -13898-3 0  9998,2 53551  53.2179 320.9831 0000981  88.2942 271.8163 15.08840002 30947,6917.88,95.438,540.424,539.067,0.0
53551.0,STARLINK-4514,PAYLOAD,2023-03-06 02:18:05,15.08862059,0.0001005,53.219,320.3896,60.2221,299.8871,5.0316e-05,5.14e-06,0.0,0 STARLINK-4514,1 53551U 22101AA  23065.09589773  .00000514  00000-0  50316-4 0  9998,2 53551  53.2190 320.3896 0001005  60.2221 299.8871 15.08862059 30305,6917.813,95.436,540.373,538.983,0.0
53551.0,STARLINK-4514,PAYLOAD,2023-03-06 22:58:08,15.08828422,0.0001606,53.2192,316.5259,56.2729,303.8416,-2.5585e-06,-3.29e-06,0.0,0 STARLINK-4514,1 53551U 22101AA  23065.95704313 -.00000329  00000-0 -25585-5 0  9999,2 53551  53.2192 316.5259 0001606  56.2729 303.8416 15.08828422 30433,6917.916,95.438,540.892,538.67,0.0
53551.0,STARLINK-4514,PAYLOAD,2023-03-07 18:02:45,15.08845725,0.0001302,53.2186,312.9562,82.531,277.583,-7.7688e-05,-1.524e-05,0.0,0 STARLINK-4514,1 53551U 22101AA  23066.75191840 -.00001524  00000-0 -77688-4 0  9991,2 53551  53.2186 312.9562 0001302  82.5310 277.5830 15.08845725 30559,6917.863,95.437,540.629,538.827,0.0
53551.0,STARLINK-4514,PAYLOAD,2023-03-07 22:48:54,15.08842378,0.0001096,53.2181,312.0623,83.7671,276.3446,8.3051e-05,1.034e-05,0.0,0 STARLINK-4514,1 53551U 22101AA  23066.95063223  .00001034  00000-0  83051-4 0  9991,2 53551  53.2181 312.0623 0001096  83.7671 276.3446 15.08842378 31244,6917.873,95.437,540.496,538.98,0.0
53551.0,STARLINK-4514,PAYLOAD,2023-03-08 16:18:10,15.08827118,0.0001371,53.2142,308.791,103.5668,256.5477,-3.1968e-05,-7.96e-06,0.0,0 STARLINK-4514,1 53551U 22101AA  23067.67928678 -.00000796  00000-0 -31968-4 0  9991,2 53551  53.2142 308.7910 0001371 103.5668 256.5477 15.08827118 30692,6917.92,95.438,540.733,538.836,0.0
53551.0,STARLINK-4514,PAYLOAD,2023-03-08 22:39:42,15.08832655,0.0001512,53.213,307.6019,101.2275,258.8887,-7.8081e-07,-3e-06,0.0,0 STARLINK-4514,1 53551U 22101AA  23067.94424377 -.00000300  00000-0 -78081-6 0  9998,2 53551  53.2130 307.6019 0001512 101.2275 258.8887 15.08832655 31393,6917.903,95.438,540.814,538.722,0.0
53551.0,STARLINK-4514,PAYLOAD,2023-03-09 22:30:28,15.08854842,0.0001204,53.2178,303.1406,75.3674,284.7452,4.6313e-05,4.5e-06,0.0,0 STARLINK-4514,1 53551U 22101AA  23068.93783179  .00000450  00000-0  46313-4 0  9991,2 53551  53.2178 303.1406 0001204  75.3674 284.7452 15.08854842 31543,6917.835,95.437,540.533,538.867,0.0
